[{"OBJECT_NAME":"HAWK-10B","OBJECT_ID":"2024-149CF","EPOCH":"2026-03-09T22:24:07.674624","MEAN_MOTION":14.96175068,"ECCENTRICITY":0.00063882,"INCLINATION":97.6865,"RA_OF_ASC_NODE":146.0046,"ARG_OF_PERICENTER":71.247,"MEAN_ANOMALY":288.9444,"EPHEMERIS_TYPE":0,"CLASSIFICATION_TYPE":"U","NORAD_CAT_ID":60545,"ELEMENT_SET_NO":999,"REV_AT_EPOCH":8514,"BSTAR":0.00020768682,"MEAN_MOTION_DOT":2.283e-5,"MEAN_MOTION_DDOT":0},{"OBJECT_NAME":"STARLINK-36227","OBJECT_ID":"2025-298W","EPOCH":"2026-03-09T22:24:17.887968","MEAN_MOTION":14.99130266,"ECCENTRICITY":0.00025619,"INCLINATION":70.0021,"RA_OF_ASC_NODE":13.8485,"ARG_OF_PERICENTER":273.927,"MEAN_ANOMALY":86.1597,"EPHEMERIS_TYPE":0,"CLASSIFICATION_TYPE":"U","NORAD_CAT_ID":67095,"ELEMENT_SET_NO":999,"REV_AT_EPOCH":1325,"BSTAR":-1.7246e-5,"MEAN_MOTION_DOT":-3.04e-6,"MEAN_MOTION_DDOT":0}]
